OBJECT_NAME,OBJECT_ID,EPOCH,MEAN_MOTION,ECCENTRICITY,INCLINATION,RA_OF_ASC_NODE,ARG_OF_PERICENTER,MEAN_ANOMALY,EPHEMERIS_TYPE,CLASSIFICATION_TYPE,NORAD_CAT_ID,ELEMENT_SET_NO,REV_AT_EPOCH,BSTAR,MEAN_MOTION_DOT,MEAN_MOTION_DDOT
CBERS 4A,2019-093E,2026-06-19T14:07:55.471872,14.81400596,.00005415,98.0190,238.0317,51.2916,308.8345,0,U,44883,999,35143,-.30738538E-4,-.294E-5,0
WEILAI 1R,2019-093F,2026-06-19T14:07:17.410080,15.00662517,.00177878,97.7858,260.4778,29.4620,330.7602,0,U,44884,999,35278,.3222841E-3,.4029E-4,0
FLORIPASAT-1,2019-093G,2026-06-19T14:53:53.930976,15.03892381,.00124206,97.7908,264.8680,64.4339,295.8169,0,U,44885,999,35301,.36786772E-3,.5014E-4,0
SHUNTIAN,2019-093H,2026-06-19T14:48:56.303712,14.95171152,.00131735,97.8017,258.7662,60.4834,299.7698,0,U,44886,999,35254,.15600366E-3,.1657E-4,0
ELEKTRO-L 3,2019-095A,2026-06-19T14:56:56.908032,1.00271435,.00009556,0.2646,81.5213,353.8222,132.6924,0,U,44903,999,2373,0,-.102E-5,0
GONETS-M 14,2019-096A,2026-06-19T13:02:50.148672,12.42870002,.00136345,82.5239,83.1802,142.8988,217.3037,0,U,44905,999,29397,.22225883E-3,.41E-6,0
GONETS-M 15,2019-096B,2026-06-19T13:45:10.108224,12.42871860,.00150039,82.5259,83.6239,166.1233,194.0262,0,U,44906,999,29394,.66583266E-3,.102E-5,0
GONETS-M 16,2019-096C,2026-06-19T14:22:51.623904,12.42891771,.00098931,82.5204,82.5589,208.8523,151.2011,0,U,44907,999,29393,.13193099E-3,.28E-6,0
RS-44 & BREEZE-KM R/B,2019-096E,2026-06-19T12:10:04.627200,12.79748873,.02182571,82.5220,338.1631,138.7616,223.0205,0,U,44909,999,30264,-.9791032E-5,.1E-6,0
JILIN-1 KUANFU 01,2020-003A,2026-06-19T12:54:02.598048,15.10735552,.0008188,97.5028,244.4472,298.2322,61.8081,0,U,45016,999,35568,.14165537E-3,.2286E-4,0
XINGYUN-2 01,2020-028A,2026-06-19T14:11:00.148416,15.11813959,.00086332,97.4863,162.9440,185.2726,174.8415,0,U,45602,999,33520,.11758049E-3,.1946E-4,0
XINGYUN-2 02,2020-028B,2026-06-19T13:40:49.228608,15.11541761,.0009189,97.5062,176.5199,263.4738,96.5446,0,U,45603,999,33519,.74030903E-4,.1192E-4,0
HAIYANG-1D,2020-036A,2026-06-19T14:58:54.297984,14.34173130,.00035357,98.4562,112.2513,122.7790,237.3737,0,U,45721,999,31532,-.32356588E-4,-.134E-5,0
M2 PATHFINDER,2020-037E,2026-06-19T13:46:25.067136,15.04681666,.00125074,97.8143,1.8325,139.3083,220.9080,0,U,45727,999,32585,.89866121E-4,.1202E-4,0
GAOFEN DUOMO (GFDM),2020-042A,2026-06-19T15:30:56.392992,14.76882329,.00123932,97.7740,230.4436,67.8923,292.3603,0,U,45856,999,32137,.5893033E-4,.365E-5,0
ZIYUAN 3-03 (ZY 3-03),2020-051A,2026-06-19T14:49:48.897120,15.21273436,.0002651,97.2827,238.2659,333.8740,26.2362,0,U,45939,999,32771,.18164714E-3,.3993E-4,0
NEMO-HD,2020-061F,2026-06-19T14:11:48.999840,15.44634764,.00021702,97.1915,232.5203,79.5981,280.5512,0,U,46277,999,32235,.18551235E-3,.8552E-4,0
NAPA-1,2020-061BA,2026-06-19T15:38:01.958784,15.68267526,.00015374,97.2455,244.9126,173.2709,186.8573,0,U,46320,999,32212,.54160536E-3,.60751E-3,0
JILIN-1 GAOFEN 3E,2020-065D,2026-06-19T14:09:06.716448,15.63878546,.00129142,97.2239,223.2546,149.6865,210.5144,0,U,46457,999,32013,.54657823E-3,.51603E-3,0
JILIN-1 GAOFEN 3F,2020-065E,2026-06-19T13:18:49.679424,15.61113085,.0014469,97.2194,220.5432,138.6293,221.6063,0,U,46458,999,32007,.55244385E-3,.46867E-3,0
JILIN-1 GAOFEN 3G,2020-065F,2026-06-19T10:34:02.815104,15.71579926,.00077416,97.2260,227.2682,56.5145,303.6858,0,U,46459,999,32029,.70919132E-3,.91721E-3,0
JILIN-1 GAOFEN 3H,2020-065G,2026-06-19T13:04:08.249952,15.68074799,.00032835,97.2203,223.6901,335.2899,24.8205,0,U,46460,999,32025,.59607927E-3,.66409E-3,0
HAIYANG-2C,2020-066A,2026-06-19T14:58:16.592160,13.83375958,.00088341,65.9952,209.2176,237.8201,122.2011,0,U,46469,999,28983,.32378926E-4,-.46E-6,0
HJ-2A,2020-067A,2026-06-19T14:30:59.054688,14.76520348,.00023374,97.8827,248.9206,254.4685,105.6267,0,U,46478,999,30861,.13323047E-3,.879E-5,0
HJ-2B,2020-067B,2026-06-19T15:24:00.038304,14.76560736,.00013389,97.8890,249.9800,100.7588,259.3773,0,U,46479,999,30862,.90629421E-4,.582E-5,0
GONETS-M 17,2020-068A,2026-06-19T14:59:04.538976,12.42873241,.00230023,82.4989,345.9855,32.3743,327.8743,0,U,46486,999,25946,.22232504E-3,.41E-6,0
GONETS-M 18,2020-068B,2026-06-19T14:06:44.404416,12.42873508,.00202181,82.4943,345.1250,29.1962,331.0243,0,U,46487,999,25944,-.47735804E-4,.3E-7,0
