CBERS 4A                
1 44883U 19093E   26170.58883648 -.00000294  00000+0 -30739-4 0  9997
2 44883  98.0190 238.0317 0000541  51.2916 308.8345 14.81400596351439
WEILAI 1R               
1 44884U 19093F   26170.58839595  .00004029  00000+0  32228-3 0  9992
2 44884  97.7858 260.4778 0017787  29.4620 330.7602 15.00662517352780
FLORIPASAT-1            
1 44885U 19093G   26170.62076309  .00005014  00000+0  36787-3 0  9993
2 44885  97.7908 264.8680 0012420  64.4339 295.8169 15.03892381353015
SHUNTIAN                
1 44886U 19093H   26170.61731833  .00001657  00000+0  15600-3 0  9993
2 44886  97.8017 258.7662 0013173  60.4834 299.7698 14.95171152352545
ELEKTRO-L 3             
1 44903U 19095A   26170.62288088 -.00000102  00000+0  00000+0 0  9994
2 44903   0.2646  81.5213 0000955 353.8222 132.6924  1.00271435 23739
GONETS-M 14             
1 44905U 19096A   26170.54363598  .00000041  00000+0  22226-3 0  9997
2 44905  82.5239  83.1802 0013634 142.8988 217.3037 12.42870002293971
GONETS-M 15             
1 44906U 19096B   26170.57303366  .00000102  00000+0  66583-3 0  9990
2 44906  82.5259  83.6239 0015003 166.1233 194.0262 12.42871860293948
GONETS-M 16             
1 44907U 19096C   26170.59920861  .00000028  00000+0  13193-3 0  9994
2 44907  82.5204  82.5589 0009893 208.8523 151.2011 12.42891771293930
RS-44 & BREEZE-KM R/B   
1 44909U 19096E   26170.50699800  .00000010  00000+0 -97910-5 0  9996
2 44909  82.5220 338.1631 0218257 138.7616 223.0205 12.79748873302644
JILIN-1 KUANFU 01       
1 45016U 20003A   26170.53753007  .00002286  00000+0  14166-3 0  9995
2 45016  97.5028 244.4472 0008188 298.2322  61.8081 15.10735552355684
XINGYUN-2 01            
1 45602U 20028A   26170.59097394  .00001946  00000+0  11758-3 0  9995
2 45602  97.4863 162.9440 0008633 185.2726 174.8415 15.11813959335209
XINGYUN-2 02            
1 45603U 20028B   26170.57001422  .00001192  00000+0  74031-4 0  9998
2 45603  97.5062 176.5199 0009189 263.4738  96.5446 15.11541761335194
HAIYANG-1D              
1 45721U 20036A   26170.62423956 -.00000134  00000+0 -32357-4 0  9996
2 45721  98.4562 112.2513 0003535 122.7790 237.3737 14.34173130315327
M2 PATHFINDER           
1 45727U 20037E   26170.57390124  .00001202  00000+0  89866-4 0  9999
2 45727  97.8143   1.8325 0012507 139.3083 220.9080 15.04681666325857
GAOFEN DUOMO (GFDM)     
1 45856U 20042A   26170.64648603  .00000365  00000+0  58930-4 0  9991
2 45856  97.7740 230.4436 0012393  67.8923 292.3603 14.76882329321370
ZIYUAN 3-03 (ZY 3-03)   
1 45939U 20051A   26170.61792705  .00003993  00000+0  18165-3 0  9998
2 45939  97.2827 238.2659 0002651 333.8740  26.2362 15.21273436327719
NEMO-HD                 
1 46277U 20061F   26170.59153935  .00008552  00000+0  18551-3 0  9993
2 46277  97.1915 232.5203 0002170  79.5981 280.5512 15.44634764322358
NAPA-1                  
1 46320U 20061BA  26170.65141156  .00060751  00000+0  54161-3 0  9997
2 46320  97.2455 244.9126 0001537 173.2709 186.8573 15.68267526322128
JILIN-1 GAOFEN 3E       
1 46457U 20065D   26170.58966107  .00051603  00000+0  54658-3 0  9992
2 46457  97.2239 223.2546 0012914 149.6865 210.5144 15.63878546320139
JILIN-1 GAOFEN 3F       
1 46458U 20065E   26170.55474166  .00046867  00000+0  55244-3 0  9997
2 46458  97.2194 220.5432 0014469 138.6293 221.6063 15.61113085320078
JILIN-1 GAOFEN 3G       
1 46459U 20065F   26170.44031036  .00091721  00000+0  70919-3 0  9996
2 46459  97.2260 227.2682 0007741  56.5145 303.6858 15.71579926320291
JILIN-1 GAOFEN 3H       
1 46460U 20065G   26170.54453993  .00066409  00000+0  59608-3 0  9996
2 46460  97.2203 223.6901 0003283 335.2899  24.8205 15.68074799320252
HAIYANG-2C              
1 46469U 20066A   26170.62380315 -.00000046  00000+0  32379-4 0  9995
2 46469  65.9952 209.2176 0008834 237.8201 122.2011 13.83375958289831
HJ-2A                   
1 46478U 20067A   26170.60485017  .00000879  00000+0  13323-3 0  9999
2 46478  97.8827 248.9206 0002337 254.4685 105.6267 14.76520348308617
HJ-2B                   
1 46479U 20067B   26170.64166711  .00000582  00000+0  90629-4 0  9997
2 46479  97.8890 249.9800 0001338 100.7588 259.3773 14.76560736308629
GONETS-M 17             
1 46486U 20068A   26170.62435809  .00000041  00000+0  22233-3 0  9996
2 46486  82.4989 345.9855 0023002  32.3743 327.8743 12.42873241259462
GONETS-M 18             
1 46487U 20068B   26170.58801394  .00000003  00000+0 -47736-4 0  9993
2 46487  82.4943 345.1250 0020218  29.1962 331.0243 12.42873508259443
